ONEWEB-0229             
1 48779U 21045N   25110.18300479  .00000130  00000+0  31133-3 0  9995
2 48779  87.9090 343.4927 0001814  78.9056 281.2279 13.15548608189922
ONEWEB-0228             
1 48780U 21045P   25109.60796240 -.00000102  00000+0 -30469-3 0  9999
2 48780  87.9086 343.5831 0001692  77.1377 282.9942 13.15549735188639
ONEWEB-0232             
1 48781U 21045Q   25110.19091127 -.00000256  00000+0 -71373-3 0  9997
2 48781  87.9085 343.4666 0001746  79.3620 280.7707 13.15549232190156
ONEWEB-0231             
1 48782U 21045R   25110.16874014  .00000204  00000+0  50732-3 0  9996
2 48782  87.9074 343.5304 0001691  75.2921 284.8397 13.15547929189860
ONEWEB-0234             
1 48783U 21045S   25110.18853852  .00000076  00000+0  16854-3 0  9990
2 48783  87.9087 343.4778 0001873 121.5481 238.5832 13.15546970189996
ONEWEB-0238             
1 48784U 21045T   25109.61018032 -.00000074  00000+0 -23006-3 0  9997
2 48784  87.9086 343.6093 0001732  87.6736 272.4592 13.15550374188685
ONEWEB-0240             
1 48785U 21045U   25109.16333761  .00000130  00000+0  31016-3 0  9998
2 48785  87.9089 343.6645 0001363  76.9568 283.1715 13.15551985188658
ONEWEB-0246             
1 48786U 21045V   25109.61414639  .00000024  00000+0  29929-4 0  9996
2 48786  87.9090 343.5840 0001830  77.0182 283.1152 13.15546070188586
