<?xml version="1.0" encoding="UTF-8"?>
<ndm xmlns:xsi="http://www.w3.org/2001/XMLSchema-instance" xsi:noNamespaceSchemaLocation="https://sanaregistry.org/r/ndmxml_unqualified/ndmxml-2.0.0-master-2.0.xsd">
<omm id="CCSDS_OMM_VERS" version="2.0">
<header><CREATION_DATE/><ORIGINATOR/></header><body><segment><metadata><OBJECT_NAME>ONEWEB-0229</OBJECT_NAME><OBJECT_ID>2021-045N</OBJECT_ID><CENTER_NAME>EARTH</CENTER_NAME><REF_FRAME>TEME</REF_FRAME><TIME_SYSTEM>UTC</TIME_SYSTEM><MEAN_ELEMENT_THEORY>SGP4</MEAN_ELEMENT_THEORY></metadata><data><meanElements><EPOCH>2025-04-20T04:23:31.613856</EPOCH><MEAN_MOTION>13.15548608</MEAN_MOTION><ECCENTRICITY>.0001814</ECCENTRICITY><INCLINATION>87.9090</INCLINATION><RA_OF_ASC_NODE>343.4927</RA_OF_ASC_NODE><ARG_OF_PERICENTER>78.9056</ARG_OF_PERICENTER><MEAN_ANOMALY>281.2279</MEAN_ANOMALY></meanElements><tleParameters><EPHEMERIS_TYPE>0</EPHEMERIS_TYPE><CLASSIFICATION_TYPE>U</CLASSIFICATION_TYPE><NORAD_CAT_ID>48779</NORAD_CAT_ID><ELEMENT_SET_NO>999</ELEMENT_SET_NO><REV_AT_EPOCH>18992</REV_AT_EPOCH><BSTAR>.31133E-3</BSTAR><MEAN_MOTION_DOT>.13E-5</MEAN_MOTION_DOT><MEAN_MOTION_DDOT>0</MEAN_MOTION_DDOT></tleParameters></data></segment></body></omm>
<omm id="CCSDS_OMM_VERS" version="2.0">
<header><CREATION_DATE/><ORIGINATOR/></header><body><segment><metadata><OBJECT_NAME>ONEWEB-0228</OBJECT_NAME><OBJECT_ID>2021-045P</OBJECT_ID><CENTER_NAME>EARTH</CENTER_NAME><REF_FRAME>TEME</REF_FRAME><TIME_SYSTEM>UTC</TIME_SYSTEM><MEAN_ELEMENT_THEORY>SGP4</MEAN_ELEMENT_THEORY></metadata><data><meanElements><EPOCH>2025-04-19T14:35:27.951360</EPOCH><MEAN_MOTION>13.15549735</MEAN_MOTION><ECCENTRICITY>.0001692</ECCENTRICITY><INCLINATION>87.9086</INCLINATION><RA_OF_ASC_NODE>343.5831</RA_OF_ASC_NODE><ARG_OF_PERICENTER>77.1377</ARG_OF_PERICENTER><MEAN_ANOMALY>282.9942</MEAN_ANOMALY></meanElements><tleParameters><EPHEMERIS_TYPE>0</EPHEMERIS_TYPE><CLASSIFICATION_TYPE>U</CLASSIFICATION_TYPE><NORAD_CAT_ID>48780</NORAD_CAT_ID><ELEMENT_SET_NO>999</ELEMENT_SET_NO><REV_AT_EPOCH>18863</REV_AT_EPOCH><BSTAR>-.30469E-3</BSTAR><MEAN_MOTION_DOT>-.102E-5</MEAN_MOTION_DOT><MEAN_MOTION_DDOT>0</MEAN_MOTION_DDOT></tleParameters></data></segment></body></omm>
<omm id="CCSDS_OMM_VERS" version="2.0">
<header><CREATION_DATE/><ORIGINATOR/></header><body><segment><metadata><OBJECT_NAME>ONEWEB-0232</OBJECT_NAME><OBJECT_ID>2021-045Q</OBJECT_ID><CENTER_NAME>EARTH</CENTER_NAME><REF_FRAME>TEME</REF_FRAME><TIME_SYSTEM>UTC</TIME_SYSTEM><MEAN_ELEMENT_THEORY>SGP4</MEAN_ELEMENT_THEORY></metadata><data><meanElements><EPOCH>2025-04-20T04:34:54.733728</EPOCH><MEAN_MOTION>13.15549232</MEAN_MOTION><ECCENTRICITY>.0001746</ECCENTRICITY><INCLINATION>87.9085</INCLINATION><RA_OF_ASC_NODE>343.4666</RA_OF_ASC_NODE><ARG_OF_PERICENTER>79.3620</ARG_OF_PERICENTER><MEAN_ANOMALY>280.7707</MEAN_ANOMALY></meanElements><tleParameters><EPHEMERIS_TYPE>0</EPHEMERIS_TYPE><CLASSIFICATION_TYPE>U</CLASSIFICATION_TYPE><NORAD_CAT_ID>48781</NORAD_CAT_ID><ELEMENT_SET_NO>999</ELEMENT_SET_NO><REV_AT_EPOCH>19015</REV_AT_EPOCH><BSTAR>-.71373E-3</BSTAR><MEAN_MOTION_DOT>-.256E-5</MEAN_MOTION_DOT><MEAN_MOTION_DDOT>0</MEAN_MOTION_DDOT></tleParameters></data></segment></body></omm>
<omm id="CCSDS_OMM_VERS" version="2.0">
<header><CREATION_DATE/><ORIGINATOR/></header><body><segment><metadata><OBJECT_NAME>ONEWEB-0231</OBJECT_NAME><OBJECT_ID>2021-045R</OBJECT_ID><CENTER_NAME>EARTH</CENTER_NAME><REF_FRAME>TEME</REF_FRAME><TIME_SYSTEM>UTC</TIME_SYSTEM><MEAN_ELEMENT_THEORY>SGP4</MEAN_ELEMENT_THEORY></metadata><data><meanElements><EPOCH>2025-04-20T04:02:59.148096</EPOCH><MEAN_MOTION>13.15547929</MEAN_MOTION><ECCENTRICITY>.0001691</ECCENTRICITY><INCLINATION>87.9074</INCLINATION><RA_OF_ASC_NODE>343.5304</RA_OF_ASC_NODE><ARG_OF_PERICENTER>75.2921</ARG_OF_PERICENTER><MEAN_ANOMALY>284.8397</MEAN_ANOMALY></meanElements><tleParameters><EPHEMERIS_TYPE>0</EPHEMERIS_TYPE><CLASSIFICATION_TYPE>U</CLASSIFICATION_TYPE><NORAD_CAT_ID>48782</NORAD_CAT_ID><ELEMENT_SET_NO>999</ELEMENT_SET_NO><REV_AT_EPOCH>18986</REV_AT_EPOCH><BSTAR>.50732E-3</BSTAR><MEAN_MOTION_DOT>.204E-5</MEAN_MOTION_DOT><MEAN_MOTION_DDOT>0</MEAN_MOTION_DDOT></tleParameters></data></segment></body></omm>
<omm id="CCSDS_OMM_VERS" version="2.0">
<header><CREATION_DATE/><ORIGINATOR/></header><body><segment><metadata><OBJECT_NAME>ONEWEB-0234</OBJECT_NAME><OBJECT_ID>2021-045S</OBJECT_ID><CENTER_NAME>EARTH</CENTER_NAME><REF_FRAME>TEME</REF_FRAME><TIME_SYSTEM>UTC</TIME_SYSTEM><MEAN_ELEMENT_THEORY>SGP4</MEAN_ELEMENT_THEORY></metadata><data><meanElements><EPOCH>2025-04-20T04:31:29.728128</EPOCH><MEAN_MOTION>13.15546970</MEAN_MOTION><ECCENTRICITY>.0001873</ECCENTRICITY><INCLINATION>87.9087</INCLINATION><RA_OF_ASC_NODE>343.4778</RA_OF_ASC_NODE><ARG_OF_PERICENTER>121.5481</ARG_OF_PERICENTER><MEAN_ANOMALY>238.5832</MEAN_ANOMALY></meanElements><tleParameters><EPHEMERIS_TYPE>0</EPHEMERIS_TYPE><CLASSIFICATION_TYPE>U</CLASSIFICATION_TYPE><NORAD_CAT_ID>48783</NORAD_CAT_ID><ELEMENT_SET_NO>999</ELEMENT_SET_NO><REV_AT_EPOCH>18999</REV_AT_EPOCH><BSTAR>.16854E-3</BSTAR><MEAN_MOTION_DOT>.76E-6</MEAN_MOTION_DOT><MEAN_MOTION_DDOT>0</MEAN_MOTION_DDOT></tleParameters></data></segment></body></omm>
<omm id="CCSDS_OMM_VERS" version="2.0">
<header><CREATION_DATE/><ORIGINATOR/></header><body><segment><metadata><OBJECT_NAME>ONEWEB-0238</OBJECT_NAME><OBJECT_ID>2021-045T</OBJECT_ID><CENTER_NAME>EARTH</CENTER_NAME><REF_FRAME>TEME</REF_FRAME><TIME_SYSTEM>UTC</TIME_SYSTEM><MEAN_ELEMENT_THEORY>SGP4</MEAN_ELEMENT_THEORY></metadata><data><meanElements><EPOCH>2025-04-19T14:38:39.579648</EPOCH><MEAN_MOTION>13.15550374</MEAN_MOTION><ECCENTRICITY>.0001732</ECCENTRICITY><INCLINATION>87.9086</INCLINATION><RA_OF_ASC_NODE>343.6093</RA_OF_ASC_NODE><ARG_OF_PERICENTER>87.6736</ARG_OF_PERICENTER><MEAN_ANOMALY>272.4592</MEAN_ANOMALY></meanElements><tleParameters><EPHEMERIS_TYPE>0</EPHEMERIS_TYPE><CLASSIFICATION_TYPE>U</CLASSIFICATION_TYPE><NORAD_CAT_ID>48784</NORAD_CAT_ID><ELEMENT_SET_NO>999</ELEMENT_SET_NO><REV_AT_EPOCH>18868</REV_AT_EPOCH><BSTAR>-.23006E-3</BSTAR><MEAN_MOTION_DOT>-.74E-6</MEAN_MOTION_DOT><MEAN_MOTION_DDOT>0</MEAN_MOTION_DDOT></tleParameters></data></segment></body></omm>
<omm id="CCSDS_OMM_VERS" version="2.0">
<header><CREATION_DATE/><ORIGINATOR/></header><body><segment><metadata><OBJECT_NAME>ONEWEB-0240</OBJECT_NAME><OBJECT_ID>2021-045U</OBJECT_ID><CENTER_NAME>EARTH</CENTER_NAME><REF_FRAME>TEME</REF_FRAME><TIME_SYSTEM>UTC</TIME_SYSTEM><MEAN_ELEMENT_THEORY>SGP4</MEAN_ELEMENT_THEORY></metadata><data><meanElements><EPOCH>2025-04-19T03:55:12.369504</EPOCH><MEAN_MOTION>13.15551985</MEAN_MOTION><ECCENTRICITY>.0001363</ECCENTRICITY><INCLINATION>87.9089</INCLINATION><RA_OF_ASC_NODE>343.6645</RA_OF_ASC_NODE><ARG_OF_PERICENTER>76.9568</ARG_OF_PERICENTER><MEAN_ANOMALY>283.1715</MEAN_ANOMALY></meanElements><tleParameters><EPHEMERIS_TYPE>0</EPHEMERIS_TYPE><CLASSIFICATION_TYPE>U</CLASSIFICATION_TYPE><NORAD_CAT_ID>48785</NORAD_CAT_ID><ELEMENT_SET_NO>999</ELEMENT_SET_NO><REV_AT_EPOCH>18865</REV_AT_EPOCH><BSTAR>.31016E-3</BSTAR><MEAN_MOTION_DOT>.13E-5</MEAN_MOTION_DOT><MEAN_MOTION_DDOT>0</MEAN_MOTION_DDOT></tleParameters></data></segment></body></omm>
<omm id="CCSDS_OMM_VERS" version="2.0">
<header><CREATION_DATE/><ORIGINATOR/></header><body><segment><metadata><OBJECT_NAME>ONEWEB-0246</OBJECT_NAME><OBJECT_ID>2021-045V</OBJECT_ID><CENTER_NAME>EARTH</CENTER_NAME><REF_FRAME>TEME</REF_FRAME><TIME_SYSTEM>UTC</TIME_SYSTEM><MEAN_ELEMENT_THEORY>SGP4</MEAN_ELEMENT_THEORY></metadata><data><meanElements><EPOCH>2025-04-19T14:44:22.248096</EPOCH><MEAN_MOTION>13.15546070</MEAN_MOTION><ECCENTRICITY>.000183</ECCENTRICITY><INCLINATION>87.9090</INCLINATION><RA_OF_ASC_NODE>343.5840</RA_OF_ASC_NODE><ARG_OF_PERICENTER>77.0182</ARG_OF_PERICENTER><MEAN_ANOMALY>283.1152</MEAN_ANOMALY></meanElements><tleParameters><EPHEMERIS_TYPE>0</EPHEMERIS_TYPE><CLASSIFICATION_TYPE>U</CLASSIFICATION_TYPE><NORAD_CAT_ID>48786</NORAD_CAT_ID><ELEMENT_SET_NO>999</ELEMENT_SET_NO><REV_AT_EPOCH>18858</REV_AT_EPOCH><BSTAR>.29929E-4</BSTAR><MEAN_MOTION_DOT>.24E-6</MEAN_MOTION_DOT><MEAN_MOTION_DDOT>0</MEAN_MOTION_DDOT></tleParameters></data></segment></body></omm>

</ndm>
